{
"type": "FeatureCollection",
"name": "Via Appia_Traiana",
"crs": { "type": "name", "properties": { "name": "urn:ogc:def:crs:OGC:1.3:CRS84" } },
"features": [
{"type":"Feature","properties":{"name":"Via Appia-Traiana"},"geometry":{"type":"LineString","coordinates":[[14.7887034136476,41.132329559612998],[14.8306845012963,41.140816556861502],[14.864261059842899,41.152434804681398],[14.882489788572601,41.170009638427501],[14.910220125623299,41.1890999446208],[14.922974011666801,41.194630102399799],[14.948192221703501,41.2000401835665],[14.9692686808507,41.204785532503998],[14.984843031646299,41.210466677952198],[15.012099929592701,41.221476776843502],[15.039416162162,41.228377388648703],[15.049771775467301,41.2321522607239],[15.068912309481799,41.243560411215597],[15.0874675758172,41.249776944754501],[15.1139844613955,41.257065923707501],[15.120438834254101,41.260454828125503],[15.152957251956201,41.287697855509101],[15.173249041685899,41.300549117030201],[15.1927442440492,41.308361819939002],[15.2280689807326,41.319346272484097],[15.241300893576501,41.3257686462264],[15.2585721053499,41.3382240855276],[15.307577096848901,41.356368733769003],[15.321416260045099,41.3600048390986],[15.346922372045499,41.363776914660399],[15.3623930312061,41.363150579782697],[15.514831454873701,41.342492819182603],[15.6018451982081,41.318714501330298],[15.614554004994,41.315819797005503],[15.7204267359597,41.304882596406102],[15.736176759495599,41.300707986454299],[15.7879942863177,41.281519064527103],[15.8475801724256,41.263896448029399],[15.861587202002299,41.261678983114997],[15.9031857106462,41.257571189913001],[15.9758458417909,41.250234052847702],[16.012109308963002,41.237865698235296],[16.029764001649799,41.232695764229902],[16.048195615784699,41.230057129335201],[16.2950433017037,41.201289090042899],[16.319446392129699,41.196447704563802],[16.373992210267399,41.181480969057503],[16.4206983824117,41.164580338040899],[16.4363988261304,41.153835489797203],[16.470629865751999,41.124620712823997],[16.4944591096796,41.114155155966102],[16.5137841262123,41.111830814843699],[16.558091129998001,41.111155752824502],[16.6212391703808,41.117521119081999],[16.672222695903201,41.114936468640799],[16.6805314313583,41.109748094437798],[16.689835618725802,41.106940990915803],[16.759683364566101,41.086030432274001],[16.855340628394,41.068715330748098],[16.8844517200538,41.0580781132712],[16.927205366033402,41.038256213154099],[16.977142236570401,41.023625685714698],[17.0197010235918,41.010733125959703],[17.041058359877301,41.001838073163803],[17.084923812954798,40.975420071830797],[17.1086928526903,40.963195855257801],[17.121037125828899,40.958438647048602],[17.147264028945202,40.953674831214897],[17.199819943083099,40.948467076542997],[17.214815287457199,40.947323189309898],[17.297726808469701,40.948612221807501],[17.3265066158257,40.915233104907202],[17.354898158739498,40.894492827723901],[17.381254551309102,40.880863871203303],[17.412734457254,40.859515274717097],[17.447776448303301,40.8409195548927],[17.470224845993599,40.822526875059403],[17.515712980766001,40.8035982201867],[17.544775059445499,40.791879628861402],[17.593041340235199,40.766947189349303],[17.607453395020698,40.761172842810403],[17.6885791541815,40.744925983776803],[17.701543784092401,40.7419514263593],[17.7202630181201,40.735198029877502],[17.755693696718101,40.714099146146602],[17.803981764348499,40.6943572701013],[17.8161172986594,40.689695945017199],[17.861903458510501,40.661602643261702],[17.881468657600799,40.653090526068901],[17.8972494322655,40.647676394444503],[17.947019050869699,40.637999765041499],[17.9539768459017,40.635583546650103],[17.955631256990799,40.6336159591811]]}},
{"type":"Feature","properties":{"name":"Via Appia-Traiana"},"geometry":{"type":"LineString","coordinates":[[16.672222695903201,41.114936468640799],[16.6892686416444,41.115510050340298],[16.735132039541899,41.108656660608602],[16.786050392290399,41.107460143031297],[16.814340937616802,41.109257707255601],[16.824470828545799,41.111137760172099],[16.855132103365499,41.121627248977497],[16.895445610623,41.104780956953199],[16.9541561280124,41.087175852528901],[16.986817039179801,41.0746787836773],[17.030875267123999,41.069503538649997],[17.050274540194799,41.0648404090988],[17.081563523599002,41.05528308953],[17.149346055177599,41.024428491754897],[17.218921239584201,40.985990476595497],[17.297726808469701,40.948612221807501]]}}
]
}
