{
"type": "FeatureCollection",
"name": "Via Latina",
"crs": { "type": "name", "properties": { "name": "urn:ogc:def:crs:OGC:1.3:CRS84" } },
"features": [
{"type":"Feature","properties":{"name":"Via Latina"},"geometry":{"type":"LineString","coordinates":[[14.198113840954599,41.114722597247798],[14.1946679196944,41.125663181109203],[14.1907675335455,41.137951415794703],[14.173964731209001,41.1678833046577],[14.1462804804274,41.198288163984998],[14.137883996636999,41.205493553122999],[14.1213691573496,41.214427287465803],[14.1037003296719,41.218393320370403],[14.087197055295499,41.233168001476002],[14.0700447858556,41.241412785290102],[14.064153681833099,41.248109173168601],[14.070814174930099,41.255208689451202],[14.076058680594301,41.2648842086044],[14.0774982793462,41.292577447101202],[14.0763485372921,41.3001741561472],[14.06605157589,41.319282275107597],[14.0649026513029,41.336944828715303],[14.060997218418599,41.3480691368677],[14.038766701710699,41.369143791133801],[14.018412344321399,41.3823435939616],[13.9541882677554,41.438525667469897],[13.9450074460258,41.441341218033003],[13.9007682488744,41.441292066680198],[13.8749245167526,41.4494891335478],[13.858429699116201,41.451212931641102],[13.8512989415612,41.4540998254122],[13.843185051589501,41.461407690041902],[13.8334793559175,41.481283684861502],[13.823243525768801,41.490705474806603],[13.8213374471613,41.486682174392598],[13.815622811786399,41.482201634451798],[13.805977434392499,41.480150968894101],[13.7957393279129,41.480396280603898],[13.715325441393899,41.493137229021201],[13.692683362436901,41.495192478819902],[13.689099309930301,41.4948836891529],[13.6752228819213,41.492496583282602],[13.662773991883,41.500413823584999],[13.6522492482676,41.503552086316802],[13.6219426022709,41.507888463303097],[13.6009314811875,41.525205143377697],[13.595970235892,41.527584189938899],[13.5809322700509,41.522084647630003],[13.5650954827332,41.527883202755099],[13.5428653037918,41.528788511378202],[13.536514900147701,41.532069890715398],[13.5335618952637,41.535547262188402],[13.5259389139335,41.538646428403297],[13.5221067674068,41.549343368075299],[13.504551104996899,41.554228028098301],[13.487473848476499,41.560333121162003],[13.4580450568368,41.566915740914602],[13.443036573703299,41.577135819780999],[13.434548725858599,41.579645592237],[13.4111557927662,41.603210172077603],[13.404313351298301,41.615033191818704],[13.397971753838799,41.621935694301797],[13.3768444293852,41.633955899417401],[13.3624722103911,41.637893214247399],[13.345704020142399,41.6475521997736],[13.2595386268978,41.691354944785999],[13.248783630701899,41.695226229887297],[13.1707508402346,41.723262862249797],[13.1635498470008,41.724801215813798],[13.156216418737801,41.724815497232797],[13.1403388694659,41.729400520112002],[13.1281227580705,41.728305129608103],[13.125297912234799,41.72972967303],[13.109410816566401,41.719932326031497],[13.0937013699318,41.710069312995898],[13.0757025757789,41.706389759109797],[13.065542650576701,41.706228509200798],[13.032714924956,41.718755775904299],[13.012368525741801,41.725001767517597],[13.001971840563399,41.7261193490571],[12.980865722638701,41.723469153299703],[12.955965605145799,41.7338954710075],[12.9482484875604,41.735628802825801],[12.9431626665962,41.738796251175202],[12.9150785136979,41.739000076551598],[12.8839141499798,41.739380520346302],[12.881878692411799,41.744821260945002],[12.8735790883315,41.744873607355402],[12.867695954162199,41.747618400296503],[12.8502519550371,41.753227836348501],[12.840682446657199,41.755736283885099],[12.8229932811214,41.760120146307997],[12.809607990824199,41.761560208534398],[12.801917028586599,41.766628897315698],[12.7972775481478,41.766502462197998],[12.7933550903923,41.766747009867899],[12.7740349094907,41.768421016603398],[12.770627348988,41.770155358670102],[12.749853343613699,41.781094392729102],[12.717373311822101,41.790723922571303],[12.6893879349775,41.789025563763197],[12.684167672147799,41.789563752900001],[12.6826834531775,41.789605241833897],[12.664934166993101,41.791474960754201],[12.6478742650256,41.796659329153798],[12.6344156883709,41.804032960622401],[12.625233246978899,41.809454102668397],[12.6226832802303,41.810964312983103],[12.619287291825099,41.813086290923899],[12.614644466958399,41.814677934961601],[12.6023235769667,41.818717198936902],[12.592827946933999,41.8257330999921],[12.5808515689386,41.833402363314299],[12.573995269160701,41.837292300625599],[12.5638441941607,41.843221712051999],[12.557652103314,41.846507696973497],[12.552231616787401,41.849578585201002],[12.5506245810497,41.850530878113098],[12.5466472901293,41.852847738450102],[12.508569279982201,41.873681880889102],[12.5057813180737,41.875124010503299]]}}
]
}
