{
"type": "FeatureCollection",
"name": "Via Salaria",
"crs": { "type": "name", "properties": { "name": "urn:ogc:def:crs:OGC:1.3:CRS84" } },
"features": [
{"type":"Feature","properties":{"name":"Vía Salaria"},"geometry":{"type":"LineString","coordinates":[[12.4973538028802,41.909400814228299],[12.504463269464701,41.909707713969397],[12.505133029086,41.912843698055298],[12.524577441601499,41.906950488418097],[12.5312219608562,41.907555289944902],[12.533486831978101,41.907560814819803],[12.534532041574099,41.9075984353004],[12.5454976091607,41.909325088011599],[12.5608683720685,41.915810546069203],[12.5663538058919,41.917615505928502],[12.567864516179901,41.918225577289498],[12.570249534276099,41.9207634463407],[12.568908177978701,41.927303272543398],[12.5762978443717,41.932147902747701],[12.596040789513999,41.934366467757698],[12.6248770739519,41.934763251749899],[12.6340994436617,41.938636432670201],[12.640147903775899,41.9403691468519],[12.656111100223701,41.9439248222386],[12.661073695687101,41.9431975030149],[12.6844462280394,41.951061123989199],[12.7057680314638,41.951184607226899],[12.721879940413601,41.9540700917848],[12.740751119081599,41.949145763650499],[12.747256907913799,41.9494189345249],[12.7611309823368,41.9530823514215],[12.764708421446199,41.952717719588797],[12.7740750992181,41.957424889199203],[12.782554182200601,41.958489802058097],[12.795888212831001,41.965192981282897],[12.802881215533899,41.963720510444801],[12.8049142314809,41.963292322681902],[12.8071664704933,41.962753200527096],[12.8084209013122,41.959900429562197],[12.8125720351048,41.955391424592101],[12.8204494660358,41.955029308484399],[12.837882902769699,41.976128201677597],[12.845491692514999,41.980553697517699],[12.8492646858786,41.985484602280501],[12.8526117187957,41.985713879861002],[12.8579103722103,41.983002283358402],[12.871724849702399,41.9901883483004],[12.8777251744905,41.995641058400302],[12.884758224986999,42.008859401998301],[12.891826687970401,42.014541622974399],[12.906094575729201,42.016863810482498],[12.9202495551382,42.017090133238497],[12.9514882813955,42.035658447092402],[12.9560454132723,42.037025668429202],[12.961203312359901,42.036540086519899],[13.001617362657299,42.019174890799199],[13.0050956061998,42.018542424335998],[13.021351922924801,42.024846382645798],[13.029662075023101,42.0304163463205],[13.0354231694678,42.037506623038198],[13.025456258982601,42.063042135909498],[13.027108011058401,42.069407590861204],[13.042873217021,42.088260897367903],[13.0518356592033,42.095293605395497],[13.0692192070996,42.102593350311999],[13.087649210555201,42.107954456842599],[13.104870935936299,42.109487366899302],[13.122233808208099,42.109171834875603],[13.138916689047401,42.107097209996098],[13.1650933996956,42.099801329574298],[13.1800530701732,42.092377830830202],[13.191575359673999,42.081202194696203],[13.1985546873233,42.076738145818197],[13.2298876468539,42.077533118589002],[13.2860566704045,42.084499768110298],[13.320642389154701,42.075217819849797],[13.3311629789603,42.074915168418499],[13.373302333592401,42.092957496138503],[13.3824351978622,42.095397941385201],[13.388348606154899,42.095130045679603],[13.3946188594145,42.092700485783503],[13.407698053270201,42.090799291943902],[13.4277938575544,42.0718352914947],[13.4379812325767,42.066380219046003],[13.4460849140935,42.064372906638901],[13.4581519294061,42.065107335545498],[13.480162875400699,42.070633220121501],[13.4943713135523,42.0713461640525],[13.5180492569315,42.070791334940097],[13.563350890671099,42.064833305846101],[13.598985390718999,42.063386155223199],[13.617683022060699,42.067164814301101],[13.624178369774199,42.067222330093998],[13.648134186325301,42.063175142277402],[13.6643205072216,42.057793042075602],[13.6787177595678,42.0561466517618],[13.6947630018455,42.057809729705497],[13.7129988676901,42.072152046872397],[13.7536890987334,42.078676512457101],[13.7728073185962,42.087620150595903],[13.7878891653423,42.095979294177603],[13.804491344231501,42.100265746875799],[13.812288308570899,42.101073122670101],[13.8274864709767,42.103498228905501],[13.840878183329799,42.115207814345098],[13.8448812002033,42.126633392346797],[13.839816009049599,42.144739146885499],[13.8404696475049,42.156297900412],[13.8332312592023,42.171331513526802],[13.8368611329748,42.177506446224101],[13.8537739250347,42.193554847332699],[13.859646810325,42.193979092916102],[13.891562053331301,42.204284920972903],[13.899687045581601,42.208828960970401],[13.914645560825701,42.224421013716103],[13.926552444252399,42.229732407704397],[13.9343629515931,42.2515397981715],[13.939670449819999,42.256196153588903],[13.976991088554399,42.266916247073397],[14.0069250037768,42.266470954695102],[14.015225327407601,42.2683647416303],[14.0212179374639,42.272594557425101],[14.029597676657399,42.2872620327852],[14.036985154754399,42.295779291788399],[14.0577701141852,42.312429281925603],[14.0897527326344,42.3267590595607],[14.1399936775053,42.340432078489997],[14.1654315813245,42.350854339024899],[14.1697952592082,42.358126491521098],[14.1742852842383,42.390479806597703],[14.216347497841999,42.4661451861543]]}}
]
}
