{
"type": "FeatureCollection",
"name": "Via Popilia",
"crs": { "type": "name", "properties": { "name": "urn:ogc:def:crs:OGC:1.3:CRS84" } },
"features": [
{"type":"Feature","properties":{"name":"Via Popilia"},"geometry":{"type":"LineString","coordinates":[[14.261852328259909,41.076359996405841],[14.350789364809728,41.0124777392179],[14.4227860134453,40.971986905737026],[14.479253973159469,40.940002893959324],[14.5426657296372,40.900797996855999],[14.540588968430701,40.852411952278601],[14.5409771681942,40.850514407676599],[14.554177528612099,40.834353887316297],[14.566163561700201,40.826006252499504],[14.585330531336799,40.817232828352303],[14.614587127614699,40.806815754793199],[14.634899968464801,40.801218220099798],[14.643401668331199,40.793945851532698],[14.644927816167399,40.790099860071599],[14.644834939350099,40.7772334824597],[14.6499296302795,40.7676534455845],[14.651616452583999,40.759231523154497],[14.650671450956301,40.744486914364899],[14.6611155186727,40.742617099469001],[14.68310194066,40.741566609852399],[14.7023618311313,40.7373340217841],[14.7112052761829,40.733657360789003],[14.7155502592272,40.728909123594399],[14.733806569829399,40.690071357868199],[14.7406451332703,40.682418387439299],[14.7431528639293,40.680768565926201],[14.7592763297052,40.678129269752198],[14.777010133425801,40.670571937967701],[14.788074731289299,40.667228148103099],[14.7965229562434,40.6683223071173],[14.8095243874365,40.666060008960301],[14.817607957470701,40.6619164070419],[14.8243930954068,40.654372874301998],[14.8314395263095,40.649824825627],[14.869678757100599,40.647590121566601],[14.878634478986299,40.645102579621202],[14.8917699945154,40.643095298813499],[14.9065140944776,40.638634607271896],[15.0084682448166,40.610730035647897],[15.026058720537,40.609677421499299],[15.0627643905942,40.613308064230701],[15.078337478358501,40.611518591174601],[15.091338177424699,40.606817945314802],[15.1105512818393,40.596408211921101],[15.1259552222255,40.593440745301898],[15.140182735203799,40.593349515549598],[15.1639226605409,40.597723602714403],[15.1764869643303,40.597985661187003],[15.188744300312299,40.595026141656199],[15.2121089984569,40.586500839353697],[15.244777017094901,40.585485987546299],[15.2555692502558,40.583969777015099],[15.264747588143599,40.5808566574784],[15.279780005091199,40.575530829337303],[15.3070866697044,40.5687403973957],[15.325418155821099,40.566219815675801],[15.334795888261,40.565612433601601],[15.3628488444661,40.567558849535999],[15.369566038325599,40.566795296696597],[15.378661644969,40.562810336254302],[15.3883144649051,40.5658362205576],[15.3948150641698,40.5713822114487],[15.405008142595801,40.571200907602602],[15.416276071428999,40.564954499002297],[15.435471293081299,40.561095997765499],[15.457501022848501,40.550690196218603],[15.4655324277141,40.540626235969199],[15.4733773099875,40.534725152878998],[15.500507268797699,40.5270749438683],[15.5067724852035,40.523491865605799],[15.513403986073101,40.513606566988102],[15.5150169839293,40.491760025390903],[15.5319602746914,40.457827476423198],[15.5763413984712,40.395561671986201],[15.598289143494,40.381008637399098],[15.607929964632801,40.367282900713199],[15.6347934247393,40.3426096713589],[15.6384894423645,40.336721913816199],[15.6391901669137,40.331856970636998],[15.6223674668936,40.297502892154903],[15.6144993505938,40.2870296017716],[15.608053100302101,40.274692960059603],[15.607005700613399,40.265512203165102],[15.612442432273699,40.255159714043899],[15.7445179250308,40.122543945497398],[15.790899132519399,40.0820589950794],[15.8190010999081,40.048257092743498],[15.8448210949468,40.031727435662802],[15.854283774774901,40.024325881931503],[15.861252455591501,40.015933008644303],[15.882540239816,39.998470587254403],[15.8908734606509,39.994017915765298],[15.9717145454948,39.9763385563095],[16.032017165028499,39.962895707557401],[16.049169994118898,39.9550846918603],[16.057293057686302,39.949784536152499],[16.071681966480099,39.932371490124297],[16.097594250837901,39.914358426263597],[16.119766444425998,39.896120878966201],[16.145880884756998,39.8712287390385],[16.150215693482401,39.8590109674209],[16.145407703469299,39.838238965371801],[16.146520541833201,39.831623900058197],[16.181091603671302,39.823404812040899],[16.195378832158099,39.817296940668399],[16.222358729196799,39.804258532464402],[16.263328400073799,39.779185893314903],[16.2750916339035,39.7676940655777],[16.283489266639101,39.7555820484409],[16.292300286102201,39.733975539397598],[16.3018940507915,39.7020414256097],[16.3025612502142,39.697802043730803],[16.302561739796001,39.697796420246199],[16.303843677029001,39.683060624789697],[16.3013389018273,39.671535052205201],[16.2787251566326,39.623101165404499],[16.266853099092899,39.601673861067297],[16.249978093767101,39.566162625856599],[16.237405136506599,39.535674575508999],[16.2194871718646,39.499394247770297],[16.217683567674801,39.492596602006103],[16.217507216706402,39.478121410266901],[16.222840616956201,39.448274365452498],[16.245033410710398,39.408843180751397],[16.257084293178899,39.375477080454097],[16.261571819095899,39.3335191717076],[16.261649149668798,39.283114870960503],[16.263085933100498,39.275287561871799],[16.280241660155902,39.2556044454983],[16.290584120328901,39.236923152911103],[16.2995149175587,39.211038808784998],[16.3023738535611,39.183036308587901],[16.299044030568201,39.171896785864902],[16.288258008359101,39.162879719033903],[16.275480701439498,39.158912319818199],[16.261073236146899,39.159740173311299],[16.2708419127034,39.147478531837102],[16.276394328507699,39.134583140287802],[16.273564382037801,39.126942634895997],[16.263203206364199,39.123347811632101],[16.260023706552701,39.118727154847598],[16.260761646507401,39.1033195256095],[16.266293609469301,39.096415906935498],[16.271143001037199,39.090569375122499],[16.276760632734501,39.084338995628002],[16.278781357033498,39.079517483403897],[16.279888114701102,39.055180536743997],[16.285918025503101,39.016000379009803],[16.283730050169499,39.008780481726298],[16.2725587144839,38.994269018519603],[16.2757126509375,38.976784554119099],[16.2694464041641,38.9283156080918],[16.267708871063402,38.907956980822199],[16.288483525919599,38.893568617128302],[16.294597784933501,38.881563019215797],[16.294877503245001,38.873564643261602],[16.292103973669899,38.862860787815499],[16.287974408427299,38.855778538734803],[16.275666281699198,38.843120023260099],[16.261820076609499,38.835091372671599],[16.170526603852998,38.7364587304438],[16.135744603213201,38.713096090891099],[16.113653309204601,38.707132749647897],[16.094281520988201,38.674752185096096],[16.092020401231,38.670146631934301],[16.0803054823905,38.652289247339297],[16.0449754160026,38.615675772710198],[16.0185773910111,38.5964087442647],[15.9623942917584,38.563140291669299],[15.9330019303966,38.548266595904003],[15.937321004231499,38.541087949479497],[15.9369884362353,38.531452518816501],[15.9335061376976,38.523401204891101],[15.9334639501169,38.5137463455697],[15.927538225921699,38.495431736388298],[15.912497594779101,38.456178618806298],[15.8946285299296,38.425997719109603],[15.885171578658101,38.408146386089001],[15.8614706680521,38.380564194024799],[15.852566520243499,38.367886900820402],[15.8360806067083,38.342982378253602],[15.8335924898653,38.3207795293552],[15.829346796711,38.310712843016198],[15.812073513422501,38.286397407182498],[15.7941702685747,38.272838343475897],[15.7671492870865,38.258325936444898],[15.725218848250201,38.245971998689001],[15.6978293787308,38.243864838955901],[15.671886391753199,38.230025283552699],[15.661290193445099,38.225940818990203],[15.6549525611494,38.218834100953401],[15.6514693795678,38.211168767512902],[15.650095138642801,38.200309520914999],[15.6514465057657,38.191501744884697],[15.6613771907888,38.1608880994023],[15.662325065228901,38.143230815929797],[15.6606352739923,38.134078645747699],[15.646682676931899,38.104880645494497],[15.6452651048709,38.093571060506697],[15.655085601642901,38.071695029788501],[15.659930044392,38.0446218889874],[15.656446308549899,38.034896605291799],[15.6422638200319,38.023544715127997],[15.6407070504243,38.017600148432201]]}}
]
}
