{
"type": "FeatureCollection",
"name": "Via Aemilia",
"crs": { "type": "name", "properties": { "name": "urn:ogc:def:crs:OGC:1.3:CRS84" } },
"features": [
{"type":"Feature","properties":{"OBJECTID_1":2074,"OBJECTID":2510,"CLASS":"Major Road","CERTAINTY":"YES","PERIOD":" ","HYPERLINK":" ","SOURCE":"500K","Shape_Leng":2833.9008563399998,"Shape__Length":3955.6553967659202},"geometry":{"type":"LineString","coordinates":[[12.2132047479879,44.144707317854397],[12.2467552607811,44.136306200030603]]}},
{"type":"Feature","properties":{"OBJECTID_1":2075,"OBJECTID":2512,"CLASS":"Major Road","CERTAINTY":"YES","PERIOD":" ","HYPERLINK":" ","SOURCE":"500K","Shape_Leng":25564.9449274,"Shape__Length":35657.998618644597},"geometry":{"type":"LineString","coordinates":[[12.2467552607811,44.136306200030603],[12.26865193658,44.129087864421798],[12.340961495693501,44.098127847443997],[12.352300995102,44.095156119492401],[12.3713120064255,44.094404111699902],[12.3880303042433,44.093302876605598],[12.395647725001799,44.091110014522101],[12.422398947800099,44.0716088666437],[12.436330388637201,44.067019243491899],[12.454975361635199,44.066947324605998],[12.490066156357299,44.072336812462098],[12.537960761893199,44.074142530992297]]}},
{"type":"Feature","properties":{"OBJECTID_1":2078,"OBJECTID":2515,"CLASS":"Major Road","CERTAINTY":"YES","PERIOD":" ","HYPERLINK":" ","SOURCE":"500K","Shape_Leng":33912.076794499997,"Shape__Length":47556.193737307702},"geometry":{"type":"LineString","coordinates":[[11.4968740386776,44.432387388078801],[11.8708913612804,44.284792084995999]]}},
{"type":"Feature","properties":{"OBJECTID_1":2079,"OBJECTID":2516,"CLASS":"Major Road","CERTAINTY":"YES","PERIOD":" ","HYPERLINK":" ","SOURCE":"500K","Shape_Leng":31452.3124742,"Shape__Length":43987.351273292901},"geometry":{"type":"LineString","coordinates":[[11.8708913612804,44.284792084995999],[12.0414075023868,44.215913145026498],[12.068932794482199,44.208236484769799],[12.114161982687399,44.189451132607701],[12.156117393790399,44.168059325767899],[12.1805139211249,44.160959651659802],[12.2132047479879,44.144707317854397]]}},
{"type":"Feature","properties":{"OBJECTID_1":2080,"OBJECTID":2517,"CLASS":"Major Road","CERTAINTY":"YES","PERIOD":" ","HYPERLINK":" ","SOURCE":"500K","Shape_Leng":2552.1308377400001,"Shape__Length":3586.9574754434698},"geometry":{"type":"LineString","coordinates":[[11.3379836541281,44.491843701685099],[11.3675512821917,44.482706957452599]]}},
{"type":"Feature","properties":{"OBJECTID_1":2081,"OBJECTID":2518,"CLASS":"Major Road","CERTAINTY":"YES","PERIOD":" ","HYPERLINK":" ","SOURCE":"500K","Shape_Leng":11669.8842511,"Shape__Length":16396.265865122699},"geometry":{"type":"LineString","coordinates":[[11.3675512821917,44.482706957452599],[11.4968740386776,44.432387388078801]]}},
{"type":"Feature","properties":{"OBJECTID_1":2093,"OBJECTID":2535,"CLASS":"Major Road","CERTAINTY":"YES","PERIOD":" ","HYPERLINK":" ","SOURCE":"500K","Shape_Leng":31670.869859099999,"Shape__Length":44602.766911686602},"geometry":{"type":"LineString","coordinates":[[11.2762521078281,44.5113586378992],[11.1383282843306,44.558673476594798],[11.080402685192,44.580461557477101],[11.0378061734203,44.5987283882341],[10.9947364345468,44.6224539515364],[10.964966283099001,44.632187948428303],[10.927060838419701,44.6496563540518]]}},
{"type":"Feature","properties":{"OBJECTID_1":2094,"OBJECTID":2536,"CLASS":"Major Road","CERTAINTY":"YES","PERIOD":" ","HYPERLINK":" ","SOURCE":"500K","Shape_Leng":26229.144463799999,"Shape__Length":36992.569328731697},"geometry":{"type":"LineString","coordinates":[[10.927060838419701,44.6496563540518],[10.9104420254264,44.657948590966598],[10.8910845464742,44.661587106241598],[10.8751543208923,44.660399322478703],[10.8596560852491,44.654119350926301],[10.8507451848045,44.652424671066903],[10.8274709092797,44.656748270270498],[10.7915055507296,44.6557829477768],[10.761311267805301,44.660514065273297],[10.727431638343001,44.668210995415897],[10.687720241277701,44.680876675818098],[10.6193252248638,44.708779380920497]]}},
{"type":"Feature","properties":{"OBJECTID_1":2095,"OBJECTID":2537,"CLASS":"Major Road","CERTAINTY":"YES","PERIOD":" ","HYPERLINK":" ","SOURCE":"500K","Shape_Leng":26049.609509400001,"Shape__Length":36804.713782357401},"geometry":{"type":"LineString","coordinates":[[10.6193252248638,44.708779380920497],[10.589488264810001,44.7167815674065],[10.534977559121799,44.735521335023797],[10.4202244821092,44.7691850944788],[10.3569171632401,44.792649107512197],[10.317160658171099,44.803503240350203]]}},
{"type":"Feature","properties":{"OBJECTID_1":2096,"OBJECTID":2538,"CLASS":"Major Road","CERTAINTY":"YES","PERIOD":" ","HYPERLINK":" ","SOURCE":"500K","Shape_Leng":55920.871083700004,"Shape__Length":79264.521839175402},"geometry":{"type":"LineString","coordinates":[[10.317160658171099,44.803503240350203],[10.1990535063479,44.829015638264202],[10.0807267155394,44.862455449255798],[10.0320191553327,44.873224034914799],[9.981067292729101,44.890498970785799],[9.952312944526559,44.903232900892696],[9.855974612186211,44.956553464804301],[9.71995932149361,45.037891454474099],[9.706530334446059,45.047755653317203]]}},
{"type":"Feature","properties":{"OBJECTID_1":2262,"OBJECTID":2763,"CLASS":"Major Road","CERTAINTY":"YES","PERIOD":" ","HYPERLINK":" ","SOURCE":"500K","Shape_Leng":5346.5946053500002,"Shape__Length":7516.7643616385303},"geometry":{"type":"LineString","coordinates":[[11.2762521078281,44.5113586378992],[11.3050178879909,44.502322136243599],[11.327090413498301,44.495380975398803],[11.3379836541281,44.491843701685099]]}}
]
}
