{
"type": "FeatureCollection",
"name": "Via Aemilia Scaura",
"crs": { "type": "name", "properties": { "name": "urn:ogc:def:crs:OGC:1.3:CRS84" } },
"features": [
{"type":"Feature","properties":{"name":"Via Aemilia Scaura"},"geometry":{"type":"LineString","coordinates":[[9.69410788721653,45.055528910246103],[9.567469942688181,45.0595562091777],[9.450516883460001,45.056673543620903],[9.353426659430189,45.070534466829201],[9.337370215160981,45.070536112520898],[9.31808357375882,45.067352452510001],[9.29471480894089,45.080046502421297],[9.27418945993222,45.0803227549575],[9.267548182697389,45.076798098588903],[9.264176299684591,45.063183183166302],[9.26110952316982,45.059368339361498],[9.216379883602491,45.042416473472997],[9.178364751932,45.030760621316702],[9.1489892025408,45.026278954980498],[9.10120444209954,45.023983336932503],[9.09323585642171,45.0222532851949],[9.07832159668005,45.016082966085598],[9.02392073788304,45.001600448041899],[8.982866613691179,44.997011904011103],[8.95955802701414,44.988870107779199],[8.91798564587025,44.966924755235098],[8.842377101130941,44.898735332762797],[8.839130293250101,44.894460917262698],[8.83500488990223,44.881698377740904],[8.82997583348085,44.850559507086103],[8.83122178959341,44.834721143992802],[8.843703383697891,44.7899754506956],[8.84427477869392,44.774444363272003],[8.841844110011619,44.764998867038898],[8.822455214279,44.7459421489839],[8.82088632370327,44.737606807642997],[8.82285541104312,44.7285271777194],[8.83195230856559,44.715765114153697],[8.844787077120669,44.707235253636902],[8.8127136407929,44.672232101577698],[8.80454935982535,44.654561420371699],[8.80714542631776,44.646904045558998],[8.84045190278095,44.602734514511098],[8.8421907069977,44.593812900324302],[8.85536465335292,44.583922485313899],[8.85766007348265,44.579400003803599],[8.85621300164599,44.555695050323997],[8.858677484712191,44.533605405682998],[8.861405241530299,44.519361437555602],[8.87146238329426,44.500652677558698],[8.866460599724901,44.488990216030103],[8.871400980749661,44.473518307307998],[8.867494698059151,44.461867631413597],[8.849858493599269,44.444703369046799],[8.87803427375826,44.430463371118798],[8.899778710269331,44.416589662410203],[8.91069465312302,44.407456835140799],[8.926819443015701,44.3999468498466],[8.94153262745742,44.3971232372119],[8.963615843814949,44.397510978854598],[8.988898476532221,44.3908694767022],[9.03796865338154,44.386334773872697],[9.067792495337169,44.381599033134599],[9.08604846098627,44.375494730621497],[9.112594071992429,44.357387666854798],[9.124876100864959,44.354830093977],[9.21185657778774,44.351996344329599],[9.221809145771161,44.353126262266898],[9.232603289648729,44.356786246832897],[9.238175533966251,44.356828768712298],[9.26711674522261,44.342526547623699],[9.320707894063551,44.324811535526599],[9.34477002083859,44.313232699145303],[9.354892128763909,44.3097851489429],[9.37953359164206,44.307206440366798],[9.38689389929497,44.304095821040903],[9.39242888329111,44.294242761214903],[9.392102401380869,44.278994413266297],[9.443405710974741,44.265981571906103],[9.480207307629611,44.259554318103497],[9.51371898984643,44.259829121799399],[9.53145627364038,44.256442995489103],[9.563523144181749,44.254272982066901],[9.56701663213458,44.253160920290803],[9.57002107904334,44.247149603281699],[9.57266742693716,44.245687642259],[9.592228694101429,44.251238581354102],[9.643595682570851,44.249962703701598],[9.654798097270319,44.237696598766],[9.661847896855379,44.233304620795899],[9.67559896047497,44.2329287120128],[9.695522964656041,44.227838732257901],[9.713664474158159,44.2267354917822],[9.745122687585541,44.223771599557402],[9.75628293716222,44.2141247856501],[9.7585251392979,44.2035091350158],[9.764390934185631,44.199631431705797],[9.768923617513609,44.199431917209999],[9.77797046629836,44.202922687418202],[9.78644784068511,44.2031512495765],[9.80561961541021,44.197512879222202],[9.834407113243371,44.200088289580201],[9.845812518450961,44.198844730904],[9.859716718775349,44.191924775915098],[9.88276728235336,44.172199066436299],[9.90456664275923,44.167163054989999],[9.910372723935071,44.163279536379903],[9.911273603909329,44.149462510838397],[9.9323856264604,44.1238068357111],[9.97944714428326,44.096512367791703],[9.996118002969141,44.080580998263201],[10.013304399406699,44.063762762442003],[10.0355660849601,44.050986513803302],[10.114904172451,44.014291525241298],[10.249050157970499,43.930830290579003],[10.3381398360613,43.859309363750803],[10.3460566392529,43.841556841711402],[10.3534858970954,43.829903573612697],[10.363196609858299,43.820643373124902],[10.393056722191799,43.799235075016099],[10.3982595334504,43.795233602541401],[10.3996312833471,43.792069710481599],[10.400702564747601,43.772478553378399],[10.396897462002499,43.741126442827202],[10.3982044451639,43.719640548639397],[10.4007247971526,43.707406654906002]]}}
]
}
