{
"type": "FeatureCollection",
"name": "Via Flaminia",
"crs": { "type": "name", "properties": { "name": "urn:ogc:def:crs:OGC:1.3:CRS84" } },
"features": [
{"type":"Feature","properties":{"name":"Via Flaminia"},"geometry":{"type":"LineString","coordinates":[[12.4676077164006,41.936539740240697],[12.478821067190299,41.939813340709499],[12.4831544089669,41.945913065114802],[12.4847373096678,41.953774387036901],[12.4929832861222,41.9708944946644],[12.4929519232407,41.990029727729002],[12.4954209383075,41.9979575249315],[12.494699518370799,41.9988904961317],[12.4922129223756,42.0021059976185],[12.4841356728877,42.026352602791199],[12.4836980738684,42.039504465632298],[12.484869055689,42.061650203735503],[12.480051246191501,42.085843236540498],[12.495034530683,42.105323150250904],[12.4972201892614,42.120688363164199],[12.4944678509439,42.134232124391701],[12.486609758046001,42.148783831308599],[12.4816781571548,42.172572195181999],[12.481578701974801,42.192621725177098],[12.4881541874965,42.219951108427303],[12.486079911030201,42.226030088397799],[12.4654153761531,42.2509923371531],[12.464698158535301,42.296156199288298],[12.437893417705601,42.362040498265998],[12.434803346977199,42.375270703787102],[12.4399317373061,42.387199111937598],[12.468133069145001,42.418272305908999],[12.4711237421856,42.425321914166297],[12.4737360133874,42.443343706499],[12.4772129741356,42.451257895420397],[12.4953481900409,42.478090747609798],[12.510006724574,42.490541081722803],[12.5133403824748,42.495279421017401],[12.514280680523701,42.502601677027002],[12.512345904336099,42.518111364297901],[12.5152607101593,42.529577488672999],[12.535147673208,42.567332079729297],[12.5448646642963,42.609082418310301],[12.548731609760599,42.618524003475898],[12.5552145364687,42.6544408936103],[12.5555300795937,42.688767341132198],[12.5496968603131,42.718979930065103],[12.5389861151282,42.7314383806048],[12.5264520225802,42.755682765911999],[12.519645973661,42.787897678071801],[12.5206717562907,42.806306499931203],[12.528426278826201,42.831345505350797],[12.562988755465099,42.876868682861101],[12.5909854600655,42.906095423882],[12.5981621403962,42.918419112082397],[12.6073649277311,42.929370807024299],[12.6201807328505,42.9347364303757],[12.703461568344199,42.956374088285799],[12.706463323900399,42.962467293684],[12.7285362168187,42.981699243414099],[12.734915007225799,42.989344110312402],[12.7338607722562,43.003647396739197],[12.7362203886911,43.008742374036203],[12.743757085041601,43.015559517375102],[12.749282843339801,43.0239693745987],[12.7531199530584,43.0630651296281],[12.764476054231601,43.091081036217602],[12.769661891822899,43.098511991560599],[12.776409843997801,43.1042518695645],[12.7918580560561,43.110074663692401],[12.7932993921497,43.111790201886798],[12.7927976255713,43.161674357303099],[12.791464498740201,43.170500143452699],[12.7764474582553,43.204432031382801],[12.7521965056076,43.274772586197201],[12.7477296157893,43.3014610447294],[12.740885259113099,43.311569464159703],[12.7241524867412,43.3284078172086],[12.7122729147941,43.346098747601197],[12.6655839651505,43.4051822154563],[12.6580566166688,43.4172567344187],[12.6538013861012,43.419568662939703],[12.640369975399,43.422347610625401],[12.636163324823601,43.425647480441498],[12.6337408658447,43.431428891808999],[12.6285808395464,43.457836299506504],[12.6294098471114,43.471334863196397],[12.623792699606099,43.479728871724099],[12.623226383684701,43.48348102109],[12.6244740915121,43.487296081798299],[12.634304208342501,43.496597524258597],[12.635930615350899,43.504908980167002],[12.6372268357969,43.5096574716624],[12.649717784058399,43.520646414625098],[12.6529500455199,43.533752819418702],[12.6522331036849,43.5464149834457],[12.655139823772201,43.5560128911006],[12.6745583980452,43.578029187177997],[12.6798949415001,43.608343540997303],[12.6773130809656,43.616990643765497],[12.6794417342528,43.623090870424399],[12.6870726108759,43.633111384459298],[12.6933195241078,43.636791248868803],[12.714949348165099,43.639279073607703],[12.7561146766025,43.676084612988703],[12.7675220940364,43.682584988239697],[12.777521461551199,43.685384498390498],[12.794374022469601,43.685900941246402],[12.834437390243,43.697960393297897],[12.8957042371482,43.736450039106003],[12.916498106968399,43.751997505088497],[12.9399499434922,43.753187603572002],[12.9472212532533,43.754744726804198],[12.9582220842063,43.760067488450701],[12.966597654318599,43.767572097663397],[12.9976966422436,43.808518296037299],[13.0134461025358,43.834745388910001],[13.022932386496301,43.845205607491003]]}}
]
}
