{
"type": "FeatureCollection",
"name": "Via Cassia",
"crs": { "type": "name", "properties": { "name": "urn:ogc:def:crs:OGC:1.3:CRS84" } },
"features": [
{"type":"Feature","properties":{"name":"Via Cassia"},"geometry":{"type":"LineString","coordinates":[[10.393056722191799,43.799235075016099],[10.397882599458899,43.8143809504299],[10.405657145442101,43.826481217908999],[10.4153282577723,43.835288665394202],[10.427954629757799,43.842058750530903],[10.440383936522901,43.845922589753002],[10.457514619446499,43.847867838617503],[10.4987210880291,43.847069270511803],[10.586139921250901,43.856038647925899],[10.620451688873899,43.862528425081798],[10.6553247158015,43.871278830980103],[10.7820721892174,43.876302128229],[10.796125395793,43.881120657354899],[10.8357832622505,43.902157672053399],[10.8958363136286,43.927548834082401],[10.9043287913903,43.933066081849397],[11.041815772249899,43.8627951403531],[11.251022225980901,43.768349514168499],[11.296468116578801,43.768978371249098],[11.335987358614901,43.7729930853681],[11.3467587625394,43.7759468626504],[11.358052046321401,43.781218852529904],[11.3674751418865,43.788858043403003],[11.3909140300938,43.7912810707262],[11.4156821832748,43.786641863305199],[11.4495215987551,43.775487318766601],[11.4679092565265,43.765651519470097],[11.4736237859002,43.758529330482403],[11.4808323546269,43.713235176652603],[11.489531326326199,43.683531896907503],[11.494734417859201,43.674769192154301],[11.525486956121799,43.6439605841503],[11.5515109352054,43.6232200071194],[11.592700192067101,43.584646165746697],[11.6259156736836,43.563662057584402],[11.674744771456799,43.540426635814498],[11.743732367836101,43.520659617036998],[11.7885072196117,43.509528191614599],[11.8440784655446,43.488285638491],[11.864974488185601,43.477453043044598],[11.881910674172101,43.465868589123303],[11.8781168210293,43.461050027265998],[11.8565242285473,43.443438608368297],[11.848778477162201,43.429079268301798],[11.860380964658299,43.3313026571265],[11.857630803857001,43.279179013351602],[11.858836112999599,43.215565059997097],[11.8622257539089,43.205288729141202],[11.888268955142999,43.169651419464699],[11.9085893912488,43.134340709816001],[11.9325519846904,43.088747297203902],[11.938050411746,43.026503869350002],[11.954845877541601,42.9468142810411],[11.9596574176968,42.931572494264202],[11.965082586242699,42.920819704454402],[11.9740595047758,42.909334611494998],[12.0187381936968,42.871332580086502],[12.0127698588144,42.843914835855003],[12.008617185309401,42.8366487271498],[12.0099534265996,42.816872609200999],[12.004303660368,42.801519141375501],[11.987816449665599,42.668036068896299],[11.983435961608,42.650250401786401],[11.984030714597999,42.642286991999804],[11.987523717460601,42.636403846515499],[12.000621839717599,42.617493393855597],[12.0188687916711,42.597598390428601],[12.0267020147104,42.585045830367001],[12.033776229606501,42.560557142421999],[12.031557778927001,42.529685517413903],[12.0329697212462,42.520118821607198],[12.038608857712999,42.5087092567681],[12.049526768775401,42.499819369800498],[12.0541570369911,42.4931434803134],[12.063394092359101,42.437264605394397],[12.0654167911551,42.397874736510197],[12.0544872558929,42.3752032526927],[12.051636518814,42.347211052048898],[12.0534420840261,42.340378413053699],[12.0637137012591,42.327231264284201],[12.0835829126994,42.306644167634303],[12.1137742356748,42.282543544829203],[12.1291802224232,42.273001955498302],[12.181182494071701,42.245988693027499],[12.2012547571056,42.239288494945797],[12.2281499448096,42.233743625428502],[12.253442889287999,42.225269601076398],[12.2741296475869,42.212624551442303],[12.3314830198895,42.1525448300359],[12.341035317447,42.138731940016498],[12.344902973478501,42.126261020461797],[12.3454475402886,42.078279981605803],[12.3485630153732,42.065718496415201],[12.3551565085232,42.051792181526999],[12.367412527575,42.0455538531304],[12.373561037553999,42.0395310681143],[12.3764628348736,42.012463308576301],[12.378848116176099,42.009217114429802],[12.382337277842501,42.0052930997402]]}},
{"type":"Feature","properties":{"name":"Via Cassia"},"geometry":{"type":"LineString","coordinates":[[12.2281499448096,42.233743625428502],[12.213579122679199,42.247846235763397],[12.203162819193199,42.2616543864143],[12.192408275748299,42.285507902679299],[12.189959692862599,42.294610213346402],[12.1912289018663,42.300208820204503],[12.1971907437259,42.307796796833003],[12.200908428715801,42.322276740706997],[12.199480432604201,42.330916421418998],[12.194582323601701,42.3419511541465]]}}
]
}
