{
"type": "FeatureCollection",
"name": "Via Clodia",
"crs": { "type": "name", "properties": { "name": "urn:ogc:def:crs:OGC:1.3:CRS84" } },
"features": [
{"type":"Feature","properties":{"name":"Via Clodia"},"geometry":{"type":"LineString","coordinates":[[12.469947030011699,41.904091976466702],[12.471784517755699,41.9232306953988],[12.4676451330288,41.931661500251998],[12.4676077164006,41.936539740240697],[12.4630986920022,41.948362468134299],[12.457830926260399,41.9512942808256],[12.4559408852756,41.955699960955698],[12.443421647269099,41.9636429470184],[12.4120099701668,41.982502375397203],[12.4085705437261,41.983564766354696],[12.3925514747626,41.993786224792899],[12.382337277842501,42.0052930997402],[12.371243131694399,42.004915107811499],[12.3587931268468,42.015304022874801],[12.336865275016001,42.020520989618397],[12.318505076946099,42.025648399952502],[12.309918489878701,42.0288476927551],[12.3001508589611,42.039098582589702],[12.290844085343901,42.051685363829499],[12.280785390392801,42.058849972674899],[12.2687953220724,42.061278840687002],[12.2443508462613,42.059031049553802],[12.2328494875067,42.061382545675201],[12.198785742937099,42.080463382877099],[12.183552203078801,42.094559043840803],[12.1725683574711,42.108480831945101],[12.1676431741444,42.1267909105513],[12.165349752766099,42.1313600698602],[12.1528568632452,42.141234646898702],[12.103773132614901,42.196799270917303],[12.0739604396503,42.223585521931398],[12.053451118382901,42.245973911593801],[12.0350292042564,42.261255233360998],[12.0166035630198,42.2806160314259],[12.0086860905833,42.285439070634403],[12.001986644738899,42.286986735744797],[11.993089850539199,42.291473192667297],[11.9410702063714,42.3359987833772],[11.918916927709899,42.373293516506699],[11.891484525906501,42.401197743044897],[11.863036965848201,42.4199480852985],[11.642052710308599,42.5298988747371],[11.6273315820648,42.541406158990497],[11.5781500734091,42.5892420591587],[11.5324070353866,42.629717602288601],[11.4986756117766,42.664127717412299]]}}
]
}
