{
"type": "FeatureCollection",
"name": "Via Ostiensis",
"crs": { "type": "name", "properties": { "name": "urn:ogc:def:crs:OGC:1.3:CRS84" } },
"features": [
{"type":"Feature","properties":{"name":"Via Ostiensis"},"geometry":{"type":"LineString","coordinates":[[12.2778565807326,41.753044528277002],[12.295579924469999,41.755433484078097],[12.3613824083639,41.783153853586903],[12.386595040761,41.7935167291878],[12.398136641345401,41.795179450933198],[12.4134501393488,41.797655497096798],[12.4186526191291,41.801296270979897],[12.4220077656298,41.810183299740302],[12.4459998750167,41.8256338749039],[12.448624207897801,41.8279084021664],[12.467436092367199,41.841925670890298],[12.4765314726352,41.848713837503901],[12.478998600341599,41.860745470153503],[12.4814700327748,41.874661826752501]]}}
]
}
