{
"type": "FeatureCollection",
"name": "Via Appia",
"crs": { "type": "name", "properties": { "name": "urn:ogc:def:crs:OGC:1.3:CRS84" } },
"features": [
{"type":"Feature","properties":{"name":"Vía Appia"},"geometry":{"type":"LineString","coordinates":[[12.5009277394582,41.872125595368601],[12.5011715251584,41.8699090388819],[12.5019270819742,41.8674173447558],[12.5129297634567,41.857690588254599],[12.5468464466278,41.827678648189597],[12.5542494979185,41.820654264081199],[12.564899379548001,41.810682637393199],[12.5700885489907,41.806512502220102],[12.5844618648278,41.792798783060597],[12.588935307856101,41.788257421796501],[12.593313165646499,41.783588198630902],[12.605504718898599,41.772424430670803],[12.618425207393001,41.764873462889597],[12.622915128218599,41.760169301343502],[12.6284310742189,41.754587057327697],[12.629161739616499,41.753847505807599],[12.634598994994599,41.748855170761601],[12.655570971091199,41.729364304566602],[12.659660986206701,41.725521398054603],[12.6662604801027,41.717682491062398],[12.670081692335801,41.717248065300502],[12.6717587373768,41.714060490110903],[12.6737649556806,41.714004565233999],[12.684436775965899,41.705592570807397],[12.7001542283863,41.693438451926198],[12.7189031391577,41.679167403042598],[12.7215045632024,41.677131296973101],[12.725704020967401,41.673871352930199],[12.7485494075378,41.656402944570402],[12.7665699993111,41.642028784983303],[12.795418959876001,41.619781551705401],[12.806484553971201,41.611280584703401],[12.8272660962107,41.595295357854802],[12.872766888245501,41.5600044185258],[12.8929432300882,41.5443348777235],[12.942978298163901,41.505458637336503],[12.951002798578299,41.499455634616702],[13.0008101509161,41.4610991177057],[13.036472240921301,41.433534478395899],[13.117904615749801,41.371506179203998],[13.1886540545397,41.313886029968501],[13.2162192758512,41.3098814779243],[13.2431097474,41.297523678279397],[13.2494323248299,41.2938816498866],[13.258798322577199,41.302558372473896],[13.274354023449099,41.306125590964598],[13.284242126531099,41.317964876734102],[13.302451778637501,41.333004064651199],[13.336235939642901,41.348844001258399],[13.364310397024299,41.357467553011503],[13.414238224221499,41.361100755709501],[13.4239965198466,41.355680040242902],[13.4499834003056,41.336377542034697],[13.4638996434447,41.3291996687798],[13.4699059815553,41.319003729904999],[13.476288662565899,41.314731028628501],[13.489288712150101,41.3098485815391],[13.499448895168699,41.2999875495317],[13.506912505486,41.298672952083997],[13.5170574288229,41.299890231540601],[13.5222944614022,41.2980438778863],[13.5295451179966,41.279780455104301],[13.5344571068685,41.272987401770003],[13.554219379264101,41.262581059895297],[13.574021897981099,41.2609640610209],[13.5976473689679,41.269151614323199],[13.6069201772842,41.269534971215201],[13.629372832090599,41.264038786252499],[13.677959313770099,41.258901170157699],[13.760503823581599,41.2411238219374],[13.768084732315501,41.238876367691503],[13.7831060505777,41.233628805538999],[13.791951362328501,41.228741904989],[13.839786143659699,41.187879507145297],[13.8466036649634,41.175905500430801],[13.846956719938101,41.1616801140853],[13.842251121697601,41.148611505040599],[13.849196200178399,41.139224879218901],[13.859019801528101,41.130304108279503],[13.8778606863098,41.119238294831398],[13.8955548303089,41.113241534416098],[13.9098104255213,41.113142909544003],[13.9207551054809,41.117679346007201],[13.931389660055,41.123847995723096],[13.9509721014088,41.130579329014502],[13.956262376236801,41.131049054734099],[13.9656210616976,41.129928232496503],[13.9803624029337,41.125246560376098],[14.0277778165543,41.123256978009302],[14.089371490322799,41.120804672237597],[14.198113840954599,41.114722597247798],[14.200850748012201,41.111275222720003],[14.2084553318454,41.1069834385207],[14.243413133684699,41.080827289863699],[14.254209231397899,41.077686876303098],[14.294913856147,41.074575966591702],[14.326517915552399,41.060889866417803],[14.351158024669401,41.046034656319598],[14.369015536286,41.037607486864999],[14.4025248020347,41.0307042681113],[14.4446772954261,41.026122047917497],[14.4691790909389,41.027099028963299],[14.499610239840701,41.031093871011898],[14.5388333109209,41.032550331554098],[14.5589845394615,41.033936062676702],[14.585325014782599,41.038831297757199],[14.639443072250099,41.058976748063202],[14.677513827603001,41.051691507573203],[14.6985563645685,41.0533075926541],[14.704511301976799,41.0540071380534],[14.7096138594531,41.058460278562002],[14.7109377812475,41.072493410429601],[14.7119860028946,41.077167722483701],[14.7168429349211,41.081227790344897],[14.730848762551901,41.085642565684701],[14.7413022392226,41.100945768837398],[14.7464457931134,41.105781615543499],[14.753352112883,41.112355732620898],[14.755541729438599,41.120199176240803],[14.7604222521227,41.128131465703902],[14.7640565042839,41.130403741247399],[14.7713302430894,41.130099834172398],[14.777958019543901,41.129786113195998],[14.7887034136476,41.132329559612998],[14.8209415497946,41.125420927688602],[14.8318167495585,41.124604999550201],[14.856460387258,41.118091229473997],[14.871069297956501,41.112229061387801],[14.9070197525577,41.1098079064991],[14.920439891199701,41.096857494767001],[14.9304683623331,41.090309347650297],[14.9378262957387,41.086274039642603],[14.949128588724699,41.079618279785599],[15.0132772454344,41.057558347382098],[15.0233546603777,41.052905557075],[15.0605713038467,41.0299854673327],[15.096481104291399,41.015155301342702],[15.102557457993599,41.012535846377403],[15.1309167702533,40.998524983602699],[15.1739756458001,40.989387560233098],[15.211618851586801,40.983700335847097],[15.2290634561763,40.982510020889997],[15.2630534104335,40.985926767336203],[15.3288717630669,40.999261313039398],[15.3383358146224,41.000357584345998],[15.373043074532299,41.012516097558702],[15.383443532634899,41.017214496981197],[15.402814906728,41.029231344843097],[15.4229191147517,41.048320460436798],[15.4374141325469,41.057051966479698],[15.4669815441164,41.066232510204202],[15.5117723778192,41.0710617023745],[15.5252616759583,41.071120872429702],[15.5328574077926,41.069690724667701],[15.5391864728555,41.068250394955697],[15.549701776075599,41.0642449975986],[15.5990497344687,41.033568668711197],[15.6296279995662,41.0187144042089],[15.680509646253901,41.012224378314798],[15.698146584637399,41.008478811773998],[15.721574467584199,41.001082004674601],[15.7530952190266,40.985053783368201],[15.795144069292199,40.974892885990002],[15.800432013890299,40.972267752412598],[15.804805785244501,40.966781419329799],[15.807540362970499,40.962595271803401],[15.8246778739886,40.954820364192898],[15.836067876682399,40.952506867623697],[15.862748401169499,40.951239340588003],[15.907141483322301,40.956534377143697],[15.9261506656759,40.953581300258598],[15.951417075717499,40.9467762839271],[16.050340809751201,40.913566223536897],[16.095187409070199,40.894035199240903],[16.1605749000489,40.861556687306702],[16.181065271355301,40.8559974544292],[16.205284308657699,40.8530284803482],[16.252751082556401,40.8518924997582],[16.277645850581699,40.849549649176502],[16.327908929042898,40.842050689880303],[16.3404037050258,40.839139328121497],[16.381018900691799,40.820133167645203],[16.393660824311599,40.817666792211597],[16.417916238891301,40.8186292825403],[16.436559048746201,40.813981790054399],[16.509712424152202,40.788779636302699],[16.5622510735686,40.765567808938798],[16.639268720154099,40.736865900418898],[16.700903091198299,40.712924452065899],[16.740900740920399,40.695648013446601],[16.8244043756726,40.649578563173201],[16.8435964253737,40.640713713378503],[16.912560118481601,40.607086985840503],[16.939093136005798,40.598790381584102],[17.0335281682278,40.5806505429113],[17.064989368553501,40.568385577998299],[17.082875502291699,40.557830084471597],[17.110890120197102,40.538509799876302],[17.138194665684502,40.526099604181198],[17.1788958678524,40.501362442297101],[17.221297683261,40.478561246157497],[17.2252708733722,40.475910572356298],[17.228519170659801,40.470359793830802],[17.247136753126501,40.464927160969197],[17.255218333392399,40.462391633375198],[17.270754231802201,40.4603191788038],[17.328071095673302,40.461939558693501],[17.387659095517201,40.459262347391899],[17.4080830417982,40.466428113195299],[17.427743199102199,40.477994518095798],[17.436648211988501,40.481546872997903],[17.4461520598094,40.4853117350548],[17.456075119932301,40.487131054846699],[17.4973852810481,40.487054801141397],[17.586551097647401,40.4930099027587],[17.625033934475699,40.493800518710799],[17.638965164208699,40.495709603725601],[17.687891452509,40.519708005190303],[17.724030564998099,40.535174645488702],[17.751705897305499,40.543067090638203],[17.8104186011943,40.555853561760699],[17.830128536843201,40.564475173297801],[17.955631256990799,40.6336159591811]]}}
]
}
