{
"type": "FeatureCollection",
"name": "Via Prenestina",
"crs": { "type": "name", "properties": { "name": "urn:ogc:def:crs:OGC:1.3:CRS84" } },
"features": [
{"type":"Feature","properties":{"name":"Via Praenestina"},"geometry":{"type":"LineString","coordinates":[[12.5191616927896,41.891743776024498],[12.5253267398547,41.891011642232399],[12.5329262320368,41.891637876559003],[12.540687840483301,41.892347747285797],[12.5605333364001,41.894163281181903],[12.5739414924145,41.894260176608903],[12.5950965945734,41.892521176764397],[12.611771101317601,41.890697687196301],[12.69376013428,41.888500719771798],[12.6978726360237,41.888385408320701],[12.7032863555413,41.888036631861297],[12.710302922850699,41.884696625418798],[12.7130396358722,41.883375241147903],[12.7242862872095,41.885742306923397],[12.7269348719084,41.886124575297501],[12.744534575123399,41.880779697488997],[12.7504159423065,41.877599460594801],[12.768491764300199,41.874788871898602],[12.7712876044337,41.871238828411499],[12.7860750678713,41.869240102660299],[12.793283261102101,41.868048561971598],[12.795459025635999,41.867789822094203],[12.800851184688501,41.867042703131702],[12.806241615382399,41.866296558837497],[12.807613128123901,41.866229454834702],[12.809562130032299,41.8661343853584],[12.815127165369701,41.865365421957698],[12.850450619258799,41.846074568055599],[12.871228314013999,41.838385601270303],[12.8771482171262,41.836113607434498],[12.8838291765404,41.833359845206402],[12.884867343344601,41.8331319708522],[12.891020567790804,41.831781114232932],[12.902007446900599,41.8278051059226],[12.908791306534001,41.826234062206403],[12.9118385653526,41.823898131601602],[12.9222700530617,41.819874766165803],[12.9268757918802,41.820613494830802],[12.9332166338565,41.814176147866],[12.942443734992899,41.817568385105297],[12.94991921475,41.816753858356499],[12.966809102465101,41.817989069098701],[12.9709432661836,41.818065332036703],[12.9739219413252,41.816119224592398],[13.008449937928599,41.819499034668603],[13.017535173522001,41.817945219190499],[13.0401637490037,41.818369921608401],[13.0579182265522,41.821740419413601],[13.0735420367907,41.8288840894744],[13.0901459260722,41.833327128653103],[13.1236292197294,41.8265844731635],[13.129192318298999,41.8295251511449],[13.1428439743492,41.829502343237003],[13.1631782427138,41.838103308750597],[13.1932485518407,41.836143069791497]]}}
]
}
