{
"type": "FeatureCollection",
"name": "Via Aurelia",
"crs": { "type": "name", "properties": { "name": "urn:ogc:def:crs:OGC:1.3:CRS84" } },
"features": [
{"type":"Feature","properties":{"name":"Via Aurelia"},"geometry":{"type":"LineString","coordinates":[[12.4109954407327,41.889201267022003],[12.402445965764599,41.886780944601597],[12.393721663370799,41.884332290145203],[12.376704396345,41.884218504709501],[12.3737731100296,41.8858188623012],[12.3665949798181,41.885833550602698],[12.3553206783363,41.880744836844698],[12.334463399135201,41.883334582747302]]}},
{"type":"Feature","properties":{"name":null},"geometry":{"type":"LineString","coordinates":[[12.332071964373,41.884400569602398],[12.3198150523957,41.890744824184303],[12.3163739146644,41.897656195442103],[12.3067633128518,41.899869978216898],[12.3015446481251,41.904025742530301],[12.271373178815701,41.903800165137199],[12.2640046884089,41.907582973146503]]}},
{"type":"Feature","properties":{"name":null},"geometry":{"type":"LineString","coordinates":[[12.2640046884089,41.907582973146503],[12.261198328105101,41.9101849492978],[12.2525890801363,41.911460092591099],[12.2373913588034,41.918611410503303],[12.232311651772999,41.9189568309192]]}},
{"type":"Feature","properties":{"name":null},"geometry":{"type":"LineString","coordinates":[[12.232311651772999,41.9189568309192],[12.2179015921458,41.9136969775235],[12.205212550991099,41.915289244065498]]}},
{"type":"Feature","properties":{"name":null},"geometry":{"type":"LineString","coordinates":[[12.205212550991099,41.915289244065498],[12.2000775122308,41.918495936846803]]}},
{"type":"Feature","properties":{"name":null},"geometry":{"type":"LineString","coordinates":[[12.2000775122308,41.918495936846803],[12.180882687633799,41.930345541333999],[12.152678313200999,41.934947562241298]]}},
{"type":"Feature","properties":{"name":null},"geometry":{"type":"LineString","coordinates":[[12.152678313200999,41.934947562241298],[12.1304299415785,41.936156900935202]]}},
{"type":"Feature","properties":{"name":null},"geometry":{"type":"LineString","coordinates":[[12.1304299415785,41.936156900935202],[12.1253264426679,41.940319032231798],[12.1244300506768,41.943003950770802],[12.113751297194,41.947206057165403]]}},
{"type":"Feature","properties":{"name":null},"geometry":{"type":"LineString","coordinates":[[12.113751297194,41.947206057165403],[12.099013175520099,41.956795251313203]]}},
{"type":"Feature","properties":{"name":null},"geometry":{"type":"LineString","coordinates":[[12.099013175520099,41.956795251313203],[12.0736837064405,41.974286034914002],[12.064292721155301,41.978259592177501]]}},
{"type":"Feature","properties":{"name":null},"geometry":{"type":"LineString","coordinates":[[12.4109954407327,41.889201267022003],[12.4240829889205,41.888009259848801],[12.4271656045303,41.889785251148702],[12.431433843601599,41.889872871880002]]}},
{"type":"Feature","properties":{"name":null},"geometry":{"type":"LineString","coordinates":[[12.4587308576137,41.887326185574103],[12.4624236925078,41.8881413623022]]}},
{"type":"Feature","properties":{"name":null},"geometry":{"type":"LineString","coordinates":[[12.431433843601599,41.889872871880002],[12.4381697520634,41.888726250898301],[12.446675891403901,41.888634339261102],[12.452783574749899,41.888581989847303]]}},
{"type":"Feature","properties":{"name":null},"geometry":{"type":"LineString","coordinates":[[12.452783574749899,41.888581989847303],[12.456881934316099,41.887653726903601],[12.4587308576137,41.887326185574103]]}},
{"type":"Feature","properties":{"name":null},"geometry":{"type":"LineString","coordinates":[[10.5444744575756,43.096993012914801],[10.5587801967472,43.0662584533043],[10.5758902220126,43.0416883559148],[10.5895143896151,43.029875792942001],[10.6596037382494,42.983897189601301]]}},
{"type":"Feature","properties":{"name":null},"geometry":{"type":"LineString","coordinates":[[10.480040146486999,43.469343752940297],[10.4825679266448,43.442562303166],[10.4821982034301,43.421352884705101],[10.4891677349512,43.407050867362301],[10.4885894624533,43.400741624014302],[10.4593519868163,43.364019433373599],[10.4556118178931,43.351886448056099],[10.457805426561899,43.345470068556097],[10.465849761777701,43.335965046585699],[10.5078911030258,43.302180510781199],[10.5188434707676,43.291268439950002],[10.5288881403222,43.276321645920397],[10.5420728224433,43.2483588949693],[10.5478621060217,43.224096100999702],[10.550637131291699,43.192532690514703],[10.5444744575756,43.096993012914801]]}},
{"type":"Feature","properties":{"name":null},"geometry":{"type":"LineString","coordinates":[[10.4007247971526,43.707406654906002],[10.407668274835499,43.682236955681603],[10.4230560671062,43.626462319237703],[10.434835563137399,43.600138041803397],[10.460802136281099,43.529039887103799],[10.480040146486999,43.469343752940297]]}},
{"type":"Feature","properties":{"name":null},"geometry":{"type":"LineString","coordinates":[[11.735145877786699,42.1907765189099],[11.7283851803146,42.206447412816502],[11.708467723055399,42.2423153264238]]}},
{"type":"Feature","properties":{"name":null},"geometry":{"type":"LineString","coordinates":[[11.708467723055399,42.2423153264238],[11.6167020993788,42.329489423846503],[11.586938352020701,42.353480533076301]]}},
{"type":"Feature","properties":{"name":null},"geometry":{"type":"LineString","coordinates":[[11.586938352020701,42.353480533076301],[11.418253336789499,42.3919528657539],[11.376892689456399,42.404133509812603],[11.365919423307799,42.405833070364501],[11.299260914118401,42.407411159627301]]}},
{"type":"Feature","properties":{"name":null},"geometry":{"type":"LineString","coordinates":[[11.28232241497,42.421207390328],[11.299260914118401,42.407411159627301]]}},
{"type":"Feature","properties":{"name":null},"geometry":{"type":"LineString","coordinates":[[11.28232241497,42.421207390328],[11.243912665073299,42.468854346622301],[11.2383507882125,42.478372754933702],[11.232449963520301,42.495453802282697],[11.2167673441734,42.516814957586497],[11.175612229580601,42.550171774007303],[11.171197285742,42.558572519384697],[11.156217162421999,42.606379164326903],[11.1481106440256,42.625880141077303],[11.1327619365546,42.650255688156697],[11.112554076421899,42.671660361719098],[11.0778969613695,42.697509459624598],[11.0594802439969,42.707920285075502],[11.033882005272501,42.718529899107999],[10.937148570513999,42.748372719822498],[10.890905113386101,42.764719659396398],[10.865136039349199,42.768575075071404],[10.848967636249499,42.773886314232598],[10.8433731900698,42.777212256524201],[10.834106157920701,42.786368078003598],[10.831791396164499,42.791556004084498],[10.8291081598519,42.816918134757898],[10.823664927084,42.830327995585101],[10.806454328236001,42.858586453147097],[10.7860139625481,42.901623235893403],[10.779629452567599,42.910627700937503],[10.765547631057,42.9214568722008],[10.7054123326264,42.953939945869102],[10.6596037382494,42.983897189601301]]}},
{"type":"Feature","properties":{"name":null},"geometry":{"type":"LineString","coordinates":[[12.064292721155301,41.978259592177501],[12.044271770788701,41.986880674136302],[11.9692191053438,42.020709992552902],[11.9501002126429,42.026860241948498],[11.920966620880201,42.039273344342597],[11.9059453304657,42.042929402572099],[11.8839312709104,42.042934251923803],[11.8466390638546,42.042100480872598],[11.835052150450601,42.046060717205101],[11.826402533989601,42.053626785363903],[11.8114606196119,42.074703327627702],[11.8036188994084,42.079145351628],[11.7956905447805,42.0897526201543],[11.7773252056523,42.1079698737041],[11.7548076179223,42.1482968131359],[11.735145877786699,42.1907765189099]]}}
]
}
